[{"OBJECT_NAME":"STARLINK-34923","OBJECT_ID":"2025-179N","EPOCH":"2026-03-09T16:30:15.046560","MEAN_MOTION":15.0565355,"ECCENTRICITY":0.0001377,"INCLINATION":97.6029,"RA_OF_ASC_NODE":112.8951,"ARG_OF_PERICENTER":155.5655,"MEAN_ANOMALY":204.5637,"EPHEMERIS_TYPE":0,"CLASSIFICATION_TYPE":"U","NORAD_CAT_ID":65247,"ELEMENT_SET_NO":999,"REV_AT_EPOCH":3186,"BSTAR":0.00024357293,"MEAN_MOTION_DOT":3.456e-5,"MEAN_MOTION_DDOT":0},{"OBJECT_NAME":"ELECTRON KICK STAGE R\/B","OBJECT_ID":"2024-219F","EPOCH":"2026-03-09T23:20:11.125536","MEAN_MOTION":14.96109186,"ECCENTRICITY":0.00508226,"INCLINATION":97.9798,"RA_OF_ASC_NODE":244.6751,"ARG_OF_PERICENTER":283.2555,"MEAN_ANOMALY":76.3,"EPHEMERIS_TYPE":0,"CLASSIFICATION_TYPE":"U","NORAD_CAT_ID":62086,"ELEMENT_SET_NO":999,"REV_AT_EPOCH":7010,"BSTAR":0.00053960044,"MEAN_MOTION_DOT":6.166e-5,"MEAN_MOTION_DDOT":0}]
